[{"id":"62706","name":"LEMUR-2-ALISIA","tle1":"1 62706U 25009DB  26176.19223491  .00009275  00000+0  69573-3 0  9995","tle2":"2 62706  97.6933 258.3064 0002695 183.6818 176.4387 15.02867623101362"},{"id":"62711","name":"LEMUR-2-ROUNDTRIPPER","tle1":"1 62711U 25009DG  26176.27790212  .00010512  00000+0  76624-3 0  9991","tle2":"2 62711  97.7250 258.9461 0005660 111.0791 249.1040 15.03911417 78840"},{"id":"62712","name":"LEMUR-2-MYNAMEISJEFF","tle1":"1 62712U 25009DH  26176.20976034  .00009583  00000+0  69914-3 0  9993","tle2":"2 62712  97.7293 259.2642 0004037 135.5379 224.6171 15.03908713 78830"},{"id":"63246","name":"LEMUR-2-LEIA-PHILIP","tle1":"1 63246U 25052AN  26176.22262967  .00001141  00000+0  10325-3 0  9993","tle2":"2 63246  97.6823  68.0383 0003506 183.4964 176.6234 14.97332864 69871"},{"id":"63248","name":"LEMUR-2-LIA-MARTIN","tle1":"1 63248U 25052AQ  26176.22500097  .00004874  00000+0  41915-3 0  9999","tle2":"2 63248  97.6878  68.5273 0003624 143.9108 216.2360 14.97855752 69886"},{"id":"63259","name":"LEMUR-2-DELOITTE-1","tle1":"1 63259U 25052BB  26176.20243745  .00003629  00000+0  31495-3 0  9992","tle2":"2 63259  97.6928  68.8353 0003281  79.5193 280.6399 14.97658606 69890"},{"id":"63261","name":"LEMUR-2-EMERSONROSE","tle1":"1 63261U 25052BD  26176.16975041  .00004378  00000+0  36486-3 0  9998","tle2":"2 63261  97.6878  69.3754 0001936  76.8592 283.2847 14.99131201 69937"},{"id":"63262","name":"LEMUR-2-MARACHE-FRAN","tle1":"1 63262U 25052BE  26176.20629605  .00005224  00000+0  42282-3 0  9998","tle2":"2 63262  97.6928  69.7460 0004620 350.8350   9.2788 15.00166034 69960"},{"id":"63264","name":"LEMUR-2-THEFALCONER","tle1":"1 63264U 25052BG  26176.23000559  .00003754  00000+0  32754-3 0  9993","tle2":"2 63264  97.6849  68.4733 0001687  15.4820 344.6453 14.97431810 69898"},{"id":"63351","name":"LEMUR-2-UNTITLED-SC","tle1":"1 63351U 25061A   26175.69181355  .00003280  00000+0  18626-3 0  9999","tle2":"2 63351  97.5637 150.9988 0017195 236.1385 123.8210 15.13519125 68721"},{"id":"63352","name":"LEMUR-2-ESPERANZA","tle1":"1 63352U 25061B   26175.86682184  .00003568  00000+0  20175-3 0  9996","tle2":"2 63352  97.5643 151.2677 0016842 234.5428 125.4232 15.13613381 68750"},{"id":"63353","name":"LEMUR-2-KREMPEL-BRO2","tle1":"1 63353U 25061C   26175.89158097  .00003623  00000+0  20227-3 0  9991","tle2":"2 63353  97.5689 151.8356 0017886 226.5674 133.4070 15.14051235 68770"},{"id":"63354","name":"LEMUR-2-THERMORAPTOR","tle1":"1 63354U 25061D   26176.20367536  .00004022  00000+0  22362-3 0  9994","tle2":"2 63354  97.5694 152.2230 0017666 224.2419 135.7401 15.14135220 68827"},{"id":"63355","name":"LEMUR-2-NEUROSPICY","tle1":"1 63355U 25061E   26176.24081675  .00003540  00000+0  19679-3 0  9997","tle2":"2 63355  97.5623 151.8798 0015414 227.4609 132.5322 15.14250887 68834"},{"id":"63356","name":"LEMUR-2-TILLINFINITY","tle1":"1 63356U 25061F   26176.20692029  .00004052  00000+0  22091-3 0  9996","tle2":"2 63356  97.5606 152.1424 0016936 215.0328 144.9791 15.14835923 68856"},{"id":"63357","name":"LEMUR-2-KREMPEL-BRO1","tle1":"1 63357U 25061G   26176.18141841  .00003585  00000+0  19691-3 0  9997","tle2":"2 63357  97.5608 152.0309 0017543 216.6088 143.3946 15.14641699 68844"},{"id":"63358","name":"LEMUR-2-LANGER2SPACE","tle1":"1 63358U 25061H   26175.87913451  .00003852  00000+0  21333-3 0  9990","tle2":"2 63358  97.5613 151.5413 0015327 226.9765 133.0184 15.14334897 68787"},{"id":"63395","name":"LEMUR-2-BALTO","tle1":"1 63395U 25052BH  26176.25772768  .00006673  00000+0  53855-3 0  9996","tle2":"2 63395  97.6920  69.7723 0006677  36.4982 323.6696 15.00169865 69970"},{"id":"64561","name":"LEMUR-2-KRISH","tle1":"1 64561U 25135AK  26176.30006178  .00004959  00000+0  44412-3 0  9999","tle2":"2 64561  97.7743 291.1206 0001203  97.4734 262.6624 14.96271355 55137"},{"id":"64565","name":"LEMUR-2-HUBBLE-4","tle1":"1 64565U 25135AP  26175.30657359  .00001089  00000+0  10947-3 0  9992","tle2":"2 64565  97.7673 289.1240 0002034 262.3094  97.7895 14.93264870 54938"},{"id":"64586","name":"LEMUR-2-SEJONG-2","tle1":"1 64586U 25135BL  26176.26057059  .00005230  00000+0  46235-3 0  9993","tle2":"2 64586  97.7687 291.2257 0002962 307.1442  52.9508 14.96754036 55153"},{"id":"64840","name":"LEMUR-2-HUBBLE-5","tle1":"1 64840U 25135BT  26176.26073520  .00001889  00000+0  18182-3 0  9993","tle2":"2 64840  97.7722 290.7160 0004391 323.5000  36.5920 14.94158336 55114"},{"id":"64841","name":"LEMUR-2-KARENDARRELL","tle1":"1 64841U 25135BU  26175.58873744  .00007633  00000+0  61444-3 0  9996","tle2":"2 64841  97.7677 291.7845 0010340 174.1170 186.0177 15.00203268 55123"},{"id":"65403","name":"LEMUR-2-LUCILLE-ROSE","tle1":"1 65403U 25135BV  26176.29592998  .00007861  00000+0  63172-3 0  9992","tle2":"2 65403  97.7748 292.5187 0012180 253.0614 106.9275 15.00243501 49856"},{"id":"66295","name":"LEMUR-2-AFFIE-WAUWIE","tle1":"1 66295U 25248C   26174.13886335  .00017919  00000+0  66599-3 0  9990","tle2":"2 66295  45.3929  82.7389 0007313 125.1240 235.0336 15.27345678 35501"},{"id":"66678","name":"LEMUR-2-DEANANDMAEVE","tle1":"1 66678U 25276N   26175.16219230  .00005755  00000+0  27181-3 0  9993","tle2":"2 66678  97.4212 248.5221 0005007 349.3175  10.7953 15.19804452 31477"},{"id":"66686","name":"LEMUR-2-STAS-GORBUK","tle1":"1 66686U 25276W   26176.16616465  .00006199  00000+0  29549-3 0  9997","tle2":"2 66686  97.4246 249.5637 0004259 346.6217  13.4904 15.19455571 31627"},{"id":"66768","name":"LEMUR-2-TEODOR","tle1":"1 66768U 25276DG  26176.20698259  .00006816  00000+0  30925-3 0  9990","tle2":"2 66768  97.4152 249.8504 0002358 108.7921 251.3570 15.21129038 31662"},{"id":"66776","name":"LEMUR-2-LAILA","tle1":"1 66776U 25276DQ  26176.17972935  .00006327  00000+0  28546-3 0  9994","tle2":"2 66776  97.4174 249.9492 0002634 124.2018 235.9468 15.21351203 31664"}]