OBJECT_NAME,OBJECT_ID,EPOCH,MEAN_MOTION,ECCENTRICITY,INCLINATION,RA_OF_ASC_NODE,ARG_OF_PERICENTER,MEAN_ANOMALY,EPHEMERIS_TYPE,CLASSIFICATION_TYPE,NORAD_CAT_ID,ELEMENT_SET_NO,REV_AT_EPOCH,BSTAR,MEAN_MOTION_DOT,MEAN_MOTION_DDOT
LEMUR-2-ALISIA,2025-009DB,2026-06-25T04:36:49.096224,15.02867623,.00026958,97.6933,258.3064,183.6818,176.4387,0,U,62706,999,10136,.69572859E-3,.9275E-4,0
LEMUR-2-ROUNDTRIPPER,2025-009DG,2026-06-25T06:40:10.743168,15.03911417,.00056601,97.7250,258.9461,111.0791,249.1040,0,U,62711,999,7884,.76623777E-3,.10512E-3,0
LEMUR-2-MYNAMEISJEFF,2025-009DH,2026-06-25T05:02:03.293376,15.03908713,.00040378,97.7293,259.2642,135.5379,224.6171,0,U,62712,999,7883,.69913754E-3,.9583E-4,0
LEMUR-2-LEIA-PHILIP,2025-052AN,2026-06-25T05:20:35.203488,14.97332864,.00035066,97.6823,68.0383,183.4964,176.6234,0,U,63246,999,6987,.10325262E-3,.1141E-4,0
LEMUR-2-LIA-MARTIN,2025-052AQ,2026-06-25T05:24:00.083808,14.97855752,.00036244,97.6878,68.5273,143.9108,216.2360,0,U,63248,999,6988,.41915208E-3,.4874E-4,0
LEMUR-2-DELOITTE-1,2025-052BB,2026-06-25T04:51:30.595680,14.97658606,.00032812,97.6928,68.8353,79.5193,280.6399,0,U,63259,999,6989,.3149537E-3,.3629E-4,0
LEMUR-2-EMERSONROSE,2025-052BD,2026-06-25T04:04:26.435424,14.99131201,.00019369,97.6878,69.3754,76.8592,283.2847,0,U,63261,999,6993,.36486363E-3,.4378E-4,0
LEMUR-2-MARACHE-FRAN,2025-052BE,2026-06-25T04:57:03.978720,15.00166034,.00046207,97.6928,69.7460,350.8350,9.2788,0,U,63262,999,6996,.42282317E-3,.5224E-4,0
LEMUR-2-THEFALCONER,2025-052BG,2026-06-25T05:31:12.482976,14.97431810,.00016876,97.6849,68.4733,15.4820,344.6453,0,U,63264,999,6989,.32754399E-3,.3754E-4,0
LEMUR-2-UNTITLED-SC,2025-061A,2026-06-24T16:36:12.690720,15.13519125,.00171959,97.5637,150.9988,236.1385,123.8210,0,U,63351,999,6872,.18625996E-3,.328E-4,0
LEMUR-2-ESPERANZA,2025-061B,2026-06-24T20:48:13.406976,15.13613381,.00168425,97.5643,151.2677,234.5428,125.4232,0,U,63352,999,6875,.20174928E-3,.3568E-4,0
LEMUR-2-KREMPEL-BRO2,2025-061C,2026-06-24T21:23:52.595808,15.14051235,.00178861,97.5689,151.8356,226.5674,133.4070,0,U,63353,999,6877,.20227052E-3,.3623E-4,0
LEMUR-2-THERMORAPTOR,2025-061D,2026-06-25T04:53:17.551104,15.14135220,.0017666,97.5694,152.2230,224.2419,135.7401,0,U,63354,999,6882,.22362415E-3,.4022E-4,0
LEMUR-2-NEUROSPICY,2025-061E,2026-06-25T05:46:46.567200,15.14250887,.00154141,97.5623,151.8798,227.4609,132.5322,0,U,63355,999,6883,.19679166E-3,.354E-4,0
LEMUR-2-TILLINFINITY,2025-061F,2026-06-25T04:57:57.913056,15.14835923,.00169364,97.5606,152.1424,215.0328,144.9791,0,U,63356,999,6885,.2209142E-3,.4052E-4,0
LEMUR-2-KREMPEL-BRO1,2025-061G,2026-06-25T04:21:14.550624,15.14641699,.00175439,97.5608,152.0309,216.6088,143.3946,0,U,63357,999,6884,.19691348E-3,.3585E-4,0
LEMUR-2-LANGER2SPACE,2025-061H,2026-06-24T21:05:57.221664,15.14334897,.00153276,97.5613,151.5413,226.9765,133.0184,0,U,63358,999,6878,.21333352E-3,.3852E-4,0
LEMUR-2-BALTO,2025-052BH,2026-06-25T06:11:07.671552,15.00169865,.0006677,97.6920,69.7723,36.4982,323.6696,0,U,63395,999,6997,.53854823E-3,.6673E-4,0
LEMUR-2-KRISH,2025-135AK,2026-06-25T07:12:05.337792,14.96271355,.00012038,97.7743,291.1206,97.4734,262.6624,0,U,64561,999,5513,.4441248E-3,.4959E-4,0
LEMUR-2-HUBBLE-4,2025-135AP,2026-06-24T07:21:27.958176,14.93264870,.00020344,97.7673,289.1240,262.3094,97.7895,0,U,64565,999,5493,.10947449E-3,.1089E-4,0
LEMUR-2-SEJONG-2,2025-135BL,2026-06-25T06:15:13.298976,14.96754036,.0002962,97.7687,291.2257,307.1442,52.9508,0,U,64586,999,5515,.46235048E-3,.523E-4,0
LEMUR-2-HUBBLE-5,2025-135BT,2026-06-25T06:15:27.521280,14.94158336,.0004391,97.7722,290.7160,323.5000,36.5920,0,U,64840,999,5511,.18181618E-3,.1889E-4,0
LEMUR-2-KARENDARRELL,2025-135BU,2026-06-24T14:07:46.914816,15.00203268,.00103403,97.7677,291.7845,174.1170,186.0177,0,U,64841,999,5512,.61443818E-3,.7633E-4,0
LEMUR-2-LUCILLE-ROSE,2025-135BV,2026-06-25T07:06:08.350272,15.00243501,.00121803,97.7748,292.5187,253.0614,106.9275,0,U,65403,999,4985,.63171881E-3,.7861E-4,0
LEMUR-2-AFFIE-WAUWIE,2025-248C,2026-06-23T03:19:57.793440,15.27345678,.00073138,45.3929,82.7389,125.1240,235.0336,0,U,66295,999,3550,.66598968E-3,.17919E-3,0
LEMUR-2-DEANANDMAEVE,2025-276N,2026-06-24T03:53:33.414720,15.19804452,.00050076,97.4212,248.5221,349.3175,10.7953,0,U,66678,999,3147,.27180821E-3,.5755E-4,0
LEMUR-2-STAS-GORBUK,2025-276W,2026-06-25T03:59:16.625760,15.19455571,.00042593,97.4246,249.5637,346.6217,13.4904,0,U,66686,999,3162,.29549138E-3,.6199E-4,0
LEMUR-2-TEODOR,2025-276DG,2026-06-25T04:58:03.295776,15.21129038,.00023583,97.4152,249.8504,108.7921,251.3570,0,U,66768,999,3166,.30925404E-3,.6816E-4,0
LEMUR-2-LAILA,2025-276DQ,2026-06-25T04:18:48.615840,15.21351203,.00026347,97.4174,249.9492,124.2018,235.9468,0,U,66776,999,3166,.28546399E-3,.6327E-4,0
